CCSDS_OMM_VERS = 2.0
CREATION_DATE  = 
ORIGINATOR     = 

OBJECT_NAME    = QIANFAN 18B
OBJECT_ID      = 2025-233B
CENTER_NAME    = EARTH
REF_FRAME      = TEME
TIME_SYSTEM    = UTC
MEAN_ELEMENT_THEORY = SGP/SGP4

EPOCH          = 2025-10-29T23:19:40.704096
MEAN_MOTION    = 14.25989126
ECCENTRICITY   = .00153706
INCLINATION    = 88.9941
RA_OF_ASC_NODE = 67.0693
ARG_OF_PERICENTER = 171.7315
MEAN_ANOMALY   = 188.4135

EPHEMERIS_TYPE = 0
CLASSIFICATION_TYPE = U
NORAD_CAT_ID   = 66034
ELEMENT_SET_NO = 999
REV_AT_EPOCH   = 180
BSTAR          = .3196264E-3
MEAN_MOTION_DOT = .777E-5
MEAN_MOTION_DDOT = 0

CCSDS_OMM_VERS = 2.0
CREATION_DATE  = 
ORIGINATOR     = 

OBJECT_NAME    = QIANFAN 18C
OBJECT_ID      = 2025-233C
CENTER_NAME    = EARTH
REF_FRAME      = TEME
TIME_SYSTEM    = UTC
MEAN_ELEMENT_THEORY = SGP/SGP4

EPOCH          = 2025-10-29T23:18:34.740288
MEAN_MOTION    = 14.26072624
ECCENTRICITY   = .00146958
INCLINATION    = 88.9942
RA_OF_ASC_NODE = 67.0694
ARG_OF_PERICENTER = 170.9700
MEAN_ANOMALY   = 189.1761

EPHEMERIS_TYPE = 0
CLASSIFICATION_TYPE = U
NORAD_CAT_ID   = 66035
ELEMENT_SET_NO = 999
REV_AT_EPOCH   = 180
BSTAR          = .32161497E-3
MEAN_MOTION_DOT = .783E-5
MEAN_MOTION_DDOT = 0

CCSDS_OMM_VERS = 2.0
CREATION_DATE  = 
ORIGINATOR     = 

OBJECT_NAME    = QIANFAN 18D
OBJECT_ID      = 2025-233D
CENTER_NAME    = EARTH
REF_FRAME      = TEME
TIME_SYSTEM    = UTC
MEAN_ELEMENT_THEORY = SGP/SGP4

EPOCH          = 2025-10-29T23:18:20.256192
MEAN_MOTION    = 14.26097782
ECCENTRICITY   = .00147829
INCLINATION    = 88.9942
RA_OF_ASC_NODE = 67.0693
ARG_OF_PERICENTER = 170.6384
MEAN_ANOMALY   = 189.5088

EPHEMERIS_TYPE = 0
CLASSIFICATION_TYPE = U
NORAD_CAT_ID   = 66036
ELEMENT_SET_NO = 999
REV_AT_EPOCH   = 180
BSTAR          = .324016E-3
MEAN_MOTION_DOT = .789E-5
MEAN_MOTION_DDOT = 0

CCSDS_OMM_VERS = 2.0
CREATION_DATE  = 
ORIGINATOR     = 

OBJECT_NAME    = QIANFAN 18E
OBJECT_ID      = 2025-233E
CENTER_NAME    = EARTH
REF_FRAME      = TEME
TIME_SYSTEM    = UTC
MEAN_ELEMENT_THEORY = SGP/SGP4

EPOCH          = 2025-10-29T23:18:07.749792
MEAN_MOTION    = 14.26143013
ECCENTRICITY   = .00147263
INCLINATION    = 88.9942
RA_OF_ASC_NODE = 67.0693
ARG_OF_PERICENTER = 171.0318
MEAN_ANOMALY   = 189.1142

EPHEMERIS_TYPE = 0
CLASSIFICATION_TYPE = U
NORAD_CAT_ID   = 66037
ELEMENT_SET_NO = 999
REV_AT_EPOCH   = 180
BSTAR          = .32454316E-3
MEAN_MOTION_DOT = .791E-5
MEAN_MOTION_DDOT = 0

CCSDS_OMM_VERS = 2.0
CREATION_DATE  = 
ORIGINATOR     = 

OBJECT_NAME    = QIANFAN 18F
OBJECT_ID      = 2025-233F
CENTER_NAME    = EARTH
REF_FRAME      = TEME
TIME_SYSTEM    = UTC
MEAN_ELEMENT_THEORY = SGP/SGP4

EPOCH          = 2025-10-29T23:17:46.770144
MEAN_MOTION    = 14.26147008
ECCENTRICITY   = .00153472
INCLINATION    = 88.9942
RA_OF_ASC_NODE = 67.0692
ARG_OF_PERICENTER = 173.1129
MEAN_ANOMALY   = 187.0279

EPHEMERIS_TYPE = 0
CLASSIFICATION_TYPE = U
NORAD_CAT_ID   = 66038
ELEMENT_SET_NO = 999
REV_AT_EPOCH   = 180
BSTAR          = .30603511E-3
MEAN_MOTION_DOT = .747E-5
MEAN_MOTION_DDOT = 0

CCSDS_OMM_VERS = 2.0
CREATION_DATE  = 
ORIGINATOR     = 

OBJECT_NAME    = QIANFAN 18G
OBJECT_ID      = 2025-233G
CENTER_NAME    = EARTH
REF_FRAME      = TEME
TIME_SYSTEM    = UTC
MEAN_ELEMENT_THEORY = SGP/SGP4

EPOCH          = 2025-10-29T23:17:40.673760
MEAN_MOTION    = 14.26152961
ECCENTRICITY   = .00149203
INCLINATION    = 88.9942
RA_OF_ASC_NODE = 67.0692
ARG_OF_PERICENTER = 172.5139
MEAN_ANOMALY   = 187.6280

EPHEMERIS_TYPE = 0
CLASSIFICATION_TYPE = U
NORAD_CAT_ID   = 66039
ELEMENT_SET_NO = 999
REV_AT_EPOCH   = 180
BSTAR          = .32364967E-3
MEAN_MOTION_DOT = .789E-5
MEAN_MOTION_DDOT = 0

CCSDS_OMM_VERS = 2.0
CREATION_DATE  = 
ORIGINATOR     = 

OBJECT_NAME    = QIANFAN 18H
OBJECT_ID      = 2025-233H
CENTER_NAME    = EARTH
REF_FRAME      = TEME
TIME_SYSTEM    = UTC
MEAN_ELEMENT_THEORY = SGP/SGP4

EPOCH          = 2025-10-29T23:17:26.857536
MEAN_MOTION    = 14.26174509
ECCENTRICITY   = .0014561
INCLINATION    = 88.9942
RA_OF_ASC_NODE = 67.0693
ARG_OF_PERICENTER = 171.1641
MEAN_ANOMALY   = 188.9812

EPHEMERIS_TYPE = 0
CLASSIFICATION_TYPE = U
NORAD_CAT_ID   = 66040
ELEMENT_SET_NO = 999
REV_AT_EPOCH   = 180
BSTAR          = .34660602E-3
MEAN_MOTION_DOT = .845E-5
MEAN_MOTION_DDOT = 0

CCSDS_OMM_VERS = 2.0
CREATION_DATE  = 
ORIGINATOR     = 

OBJECT_NAME    = QIANFAN 18J
OBJECT_ID      = 2025-233J
CENTER_NAME    = EARTH
REF_FRAME      = TEME
TIME_SYSTEM    = UTC
MEAN_ELEMENT_THEORY = SGP/SGP4

EPOCH          = 2025-10-29T23:17:21.077376
MEAN_MOTION    = 14.26189924
ECCENTRICITY   = .00147265
INCLINATION    = 88.9942
RA_OF_ASC_NODE = 67.0692
ARG_OF_PERICENTER = 170.2843
MEAN_ANOMALY   = 189.8639

EPHEMERIS_TYPE = 0
CLASSIFICATION_TYPE = U
NORAD_CAT_ID   = 66041
ELEMENT_SET_NO = 999
REV_AT_EPOCH   = 180
BSTAR          = .32509618E-3
MEAN_MOTION_DOT = .793E-5
MEAN_MOTION_DDOT = 0

CCSDS_OMM_VERS = 2.0
CREATION_DATE  = 
ORIGINATOR     = 

OBJECT_NAME    = QIANFAN 18K
OBJECT_ID      = 2025-233K
CENTER_NAME    = EARTH
REF_FRAME      = TEME
TIME_SYSTEM    = UTC
MEAN_ELEMENT_THEORY = SGP/SGP4

EPOCH          = 2025-10-29T23:17:20.224608
MEAN_MOTION    = 14.26205513
ECCENTRICITY   = .00151603
INCLINATION    = 88.9942
RA_OF_ASC_NODE = 67.0692
ARG_OF_PERICENTER = 172.0481
MEAN_ANOMALY   = 188.0956

EPHEMERIS_TYPE = 0
CLASSIFICATION_TYPE = U
NORAD_CAT_ID   = 66042
ELEMENT_SET_NO = 999
REV_AT_EPOCH   = 180
BSTAR          = .30363192E-3
MEAN_MOTION_DOT = .742E-5
MEAN_MOTION_DDOT = 0

CCSDS_OMM_VERS = 2.0
CREATION_DATE  = 
ORIGINATOR     = 

OBJECT_NAME    = QIANFAN 18L
OBJECT_ID      = 2025-233L
CENTER_NAME    = EARTH
REF_FRAME      = TEME
TIME_SYSTEM    = UTC
MEAN_ELEMENT_THEORY = SGP/SGP4

EPOCH          = 2025-10-29T23:16:20.766720
MEAN_MOTION    = 14.26629054
ECCENTRICITY   = .00150722
INCLINATION    = 88.9942
RA_OF_ASC_NODE = 67.0691
ARG_OF_PERICENTER = 170.3527
MEAN_ANOMALY   = 189.7959

EPHEMERIS_TYPE = 0
CLASSIFICATION_TYPE = U
NORAD_CAT_ID   = 66043
ELEMENT_SET_NO = 999
REV_AT_EPOCH   = 180
BSTAR          = .2694074E-3
MEAN_MOTION_DOT = .666E-5
MEAN_MOTION_DDOT = 0

CCSDS_OMM_VERS = 2.0
CREATION_DATE  = 
ORIGINATOR     = 

OBJECT_NAME    = QIANFAN 18M
OBJECT_ID      = 2025-233M
CENTER_NAME    = EARTH
REF_FRAME      = TEME
TIME_SYSTEM    = UTC
MEAN_ELEMENT_THEORY = SGP/SGP4

EPOCH          = 2025-10-29T23:17:12.553152
MEAN_MOTION    = 14.26209500
ECCENTRICITY   = .00155208
INCLINATION    = 88.9942
RA_OF_ASC_NODE = 67.0691
ARG_OF_PERICENTER = 172.1415
MEAN_ANOMALY   = 188.0025

EPHEMERIS_TYPE = 0
CLASSIFICATION_TYPE = U
NORAD_CAT_ID   = 66044
ELEMENT_SET_NO = 999
REV_AT_EPOCH   = 180
BSTAR          = .34651502E-3
MEAN_MOTION_DOT = .845E-5
MEAN_MOTION_DDOT = 0

CCSDS_OMM_VERS = 2.0
CREATION_DATE  = 
ORIGINATOR     = 

OBJECT_NAME    = QIANFAN 18N
OBJECT_ID      = 2025-233N
CENTER_NAME    = EARTH
REF_FRAME      = TEME
TIME_SYSTEM    = UTC
MEAN_ELEMENT_THEORY = SGP/SGP4

EPOCH          = 2025-10-29T23:16:57.649152
MEAN_MOTION    = 14.26238647
ECCENTRICITY   = .00149481
INCLINATION    = 88.9943
RA_OF_ASC_NODE = 67.0693
ARG_OF_PERICENTER = 170.7995
MEAN_ANOMALY   = 189.3476

EPHEMERIS_TYPE = 0
CLASSIFICATION_TYPE = U
NORAD_CAT_ID   = 66045
ELEMENT_SET_NO = 999
REV_AT_EPOCH   = 180
BSTAR          = .31726212E-3
MEAN_MOTION_DOT = .775E-5
MEAN_MOTION_DDOT = 0

